NORAD_CAT_ID,OBJECT_NAME,OBJECT_TYPE,EPOCH,MEAN_MOTION,ECCENTRICITY,INCLINATION,RA_OF_ASC_NODE,ARG_OF_PERICENTER,MEAN_ANOMALY,BSTAR,MEAN_MOTION_DOT,MEAN_MOTION_DDOT,TLE_LINE0,TLE_LINE1,TLE_LINE2,SEMIMAJOR_AXIS,PERIOD,APOGEE,PERIGEE,DECAYED
53560.0,STARLINK-4564,PAYLOAD,2023-09-03 22:34:26,15.08830626,0.0001278,53.218,214.2423,87.0673,273.0465,-4.9639e-05,-1.078e-05,0.0,0 STARLINK-4564,1 53560U 22101AK  23246.94058228 -.00001078  00000-0 -49639-4 0  9993,2 53560  53.2180 214.2423 0001278  87.0673 273.0465 15.08830626 57892,6917.909,95.438,540.658,538.89,0.0
53560.0,STARLINK-4564,PAYLOAD,2023-09-04 04:55:59,15.08786567,0.0001317,53.2181,213.0529,98.7988,261.3154,0.00051099,7.842e-05,0.0,0 STARLINK-4564,1 53560U 22101AK  23247.20554484  .00007842  00000-0  51099-3 0  9993,2 53560  53.2181 213.0529 0001317  98.7988 261.3154 15.08786567 57933,6918.044,95.441,540.82,538.998,0.0
53560.0,STARLINK-4564,PAYLOAD,2023-09-04 14:28:18,15.08799848,0.0001314,53.2181,211.2683,96.6587,263.4555,0.00043673,6.662e-05,0.0,0 STARLINK-4564,1 53560U 22101AK  23247.60298975  .00006662  00000-0  43673-3 0  9995,2 53560  53.2181 211.2683 0001314  96.6587 263.4555 15.08799848 57993,6918.003,95.44,540.777,538.959,0.0
53560.0,STARLINK-4564,PAYLOAD,2023-09-05 04:46:45,15.08839424,0.000133,53.2178,208.5913,97.1506,262.9638,7.5319e-05,9.11e-06,0.0,0 STARLINK-4564,1 53560U 22101AK  23248.19913896  .00000911  00000-0  75319-4 0  9990,2 53560  53.2178 208.5913 0001330  97.1506 262.9638 15.08839424 58081,6917.882,95.438,540.667,538.827,0.0
53560.0,STARLINK-4564,PAYLOAD,2023-09-05 19:05:14,15.08831333,0.0001267,53.2176,205.9146,92.5724,267.5413,0.00010684,1.413e-05,0.0,0 STARLINK-4564,1 53560U 22101AK  23248.79530464  .00001413  00000-0  10684-3 0  9993,2 53560  53.2176 205.9146 0001267  92.5724 267.5413 15.08831333 58171,6917.907,95.438,540.648,538.895,0.0
53560.0,STARLINK-4564,PAYLOAD,2023-09-06 20:31:24,15.08843216,0.0001317,53.2177,201.1575,92.1977,267.9166,5.2947e-05,5.55e-06,0.0,0 STARLINK-4564,1 53560U 22101AK  23249.85514180  .00000555  00000-0  52947-4 0  9993,2 53560  53.2177 201.1575 0001317  92.1977 267.9166 15.08843216 58338,6917.871,95.437,540.647,538.824,0.0
53560.0,STARLINK-4564,PAYLOAD,2023-09-07 02:52:56,15.08841514,0.0001303,53.2178,199.9676,89.6598,270.4544,4.1784e-05,3.77e-06,0.0,0 STARLINK-4564,1 53560U 22101AK  23250.12010331  .00000377  00000-0  41784-4 0  9993,2 53560  53.2178 199.9676 0001303  89.6598 270.4544 15.08841514 58372,6917.876,95.437,540.642,538.839,0.0
53560.0,STARLINK-4564,PAYLOAD,2023-09-07 06:03:42,15.08846849,0.0001207,53.2166,199.3716,79.7046,280.4082,5.5613e-05,5.97e-06,0.0,0 STARLINK-4564,1 53560U 22101AK  23250.25257923  .00000597  00000-0  55613-4 0  9997,2 53560  53.2166 199.3716 0001207  79.7046 280.4082 15.08846849 58395,6917.859,95.437,540.559,538.889,0.0
53560.0,STARLINK-4564,PAYLOAD,2023-09-08 02:43:43,15.08842189,0.00014,53.2159,195.5034,99.3798,260.7352,5.6435e-05,6.1e-06,0.0,0 STARLINK-4564,1 53560U 22101AK  23251.11370016  .00000610  00000-0  56435-4 0  9991,2 53560  53.2159 195.5034 0001400  99.3798 260.7352 15.08842189 58524,6917.874,95.437,540.707,538.77,0.0
53560.0,STARLINK-4564,PAYLOAD,2023-09-09 02:34:30,15.08842972,0.0001488,53.2169,191.0435,101.2459,258.87,1.8264e-05,3e-08,0.0,0 STARLINK-4564,1 53560U 22101AK  23252.10730024  .00000003  00000-0  18264-4 0  9994,2 53560  53.2169 191.0435 0001488 101.2459 258.8700 15.08842972 58675,6917.871,95.437,540.766,538.707,0.0
53560.0,STARLINK-4564,PAYLOAD,2023-09-09 05:45:16,15.08843536,0.000147,53.2167,190.4483,101.8407,258.275,2.0548e-05,3.9e-07,0.0,0 STARLINK-4564,1 53560U 22101AK  23252.23977924  .00000039  00000-0  20548-4 0  9997,2 53560  53.2167 190.4483 0001470 101.8407 258.2750 15.08843536 58697,6917.87,95.437,540.752,538.718,0.0
53560.0,STARLINK-4564,PAYLOAD,2023-09-10 04:00:40,15.0884518,0.0001569,53.2176,186.2878,100.7142,259.4027,7.7718e-05,9.49e-06,0.0,0 STARLINK-4564,1 53560U 22101AK  23253.16713598  .00000949  00000-0  77718-4 0  9996,2 53560  53.2176 186.2878 0001569 100.7142 259.4027 15.08845180 58834,6917.865,95.437,540.815,538.644,0.0
53560.0,STARLINK-4564,PAYLOAD,2023-09-11 02:16:05,15.08829134,0.0001539,53.2178,182.1274,98.3083,261.8084,-5.466e-05,-1.158e-05,0.0,0 STARLINK-4564,1 53560U 22101AK  23254.09451357 -.00001158  00000-0 -54660-4 0  9997,2 53560  53.2178 182.1274 0001539  98.3083 261.8084 15.08829134 58970,6917.914,95.438,540.843,538.714,0.0
53560.0,STARLINK-4564,PAYLOAD,2023-09-11 11:48:24,15.08833657,0.0001587,53.2186,180.3437,104.4257,255.6911,-2.1367e-05,-6.28e-06,0.0,0 STARLINK-4564,1 53560U 22101AK  23254.49195188 -.00000628  00000-0 -21367-4 0  9997,2 53560  53.2186 180.3437 0001587 104.4257 255.6911 15.08833657 59038,6917.9,95.438,540.863,538.667,0.0
53560.0,STARLINK-4564,PAYLOAD,2023-09-12 02:06:51,15.08849663,0.0001292,53.2166,177.6646,91.1386,268.9754,3.5748e-05,2.81e-06,0.0,0 STARLINK-4564,1 53560U 22101AK  23255.08809971  .00000281  00000-0  35748-4 0  9996,2 53560  53.2166 177.6646 0001292  91.1386 268.9754 15.08849663 59121,6917.851,95.437,540.61,538.822,0.0
53560.0,STARLINK-4564,PAYLOAD,2023-09-12 05:17:38,15.08849565,0.0001279,53.2166,177.0683,85.0891,275.0247,5.148e-05,5.32e-06,0.0,0 STARLINK-4564,1 53560U 22101AK  23255.22057900  .00000532  00000-0  51480-4 0  9999,2 53560  53.2166 177.0683 0001279  85.0891 275.0247 15.08849565 59143,6917.851,95.437,540.601,538.831,0.0
53560.0,STARLINK-4564,PAYLOAD,2023-09-13 01:57:39,15.08841507,0.0001655,53.2175,173.2028,65.4084,294.708,0.00013336,1.835e-05,0.0,0 STARLINK-4564,1 53560U 22101AK  23256.08170544  .00001835  00000-0  13336-3 0  9998,2 53560  53.2175 173.2028 0001655  65.4084 294.7080 15.08841507 59273,6917.876,95.437,540.886,538.596,0.0
53560.0,STARLINK-4564,PAYLOAD,2023-09-13 03:33:02,15.08845219,0.0001514,53.2181,172.904,91.1193,268.9972,0.00017434,2.488e-05,0.0,0 STARLINK-4564,1 53560U 22101AK  23256.14794082  .00002488  00000-0  17434-3 0  9992,2 53560  53.2181 172.9040 0001514  91.1193 268.9972 15.08845219 59289,6917.864,95.437,540.777,538.682,0.0
53560.0,STARLINK-4564,PAYLOAD,2023-09-14 04:59:11,15.08849054,0.0001467,53.2176,168.1471,84.6719,275.4441,0.00012114,1.641e-05,0.0,0 STARLINK-4564,1 53560U 22101AK  23257.20777717  .00001641  00000-0  12114-3 0  9996,2 53560  53.2176 168.1471 0001467  84.6719 275.4441 15.08849054 59449,6917.853,95.437,540.733,538.703,0.0
53560.0,STARLINK-4564,PAYLOAD,2023-09-14 17:42:18,15.08830605,0.0001624,53.2163,165.7687,89.5816,270.5362,-2.1486e-05,-6.3e-06,0.0,0 STARLINK-4564,1 53560U 22101AK  23257.73771447 -.00000630  00000-0 -21486-4 0  9990,2 53560  53.2163 165.7687 0001624  89.5816 270.5362 15.08830605 59523,6917.909,95.438,540.898,538.651,0.0
53560.0,STARLINK-4564,PAYLOAD,2023-09-15 03:14:37,15.08836648,0.0001381,53.217,163.9845,101.863,258.2517,-7.8953e-05,-1.544e-05,0.0,0 STARLINK-4564,1 53560U 22101AK  23258.13515381 -.00001544  00000-0 -78953-4 0  9994,2 53560  53.2170 163.9845 0001381 101.8630 258.2517 15.08836648 59583,6917.891,95.438,540.711,538.8,0.0
53560.0,STARLINK-4564,PAYLOAD,2023-09-15 23:54:36,15.08855012,0.0001302,53.217,160.1183,98.52,261.594,6.9672e-05,8.22e-06,0.0,0 STARLINK-4564,1 53560U 22101AK  23258.99625693  .00000822  00000-0  69672-4 0  9990,2 53560  53.2170 160.1183 0001302  98.5200 261.5940 15.08855012 59713,6917.835,95.437,540.6,538.799,0.0
53560.0,STARLINK-4564,PAYLOAD,2023-09-16 03:05:22,15.08857401,0.0001321,53.217,159.5234,101.6579,258.4561,0.0001018,1.333e-05,0.0,0 STARLINK-4564,1 53560U 22101AK  23259.12873395  .00001333  00000-0  10180-3 0  9997,2 53560  53.2170 159.5234 0001321 101.6579 258.4561 15.08857401 59738,6917.827,95.436,540.606,538.778,0.0
53560.0,STARLINK-4564,PAYLOAD,2023-09-16 17:23:52,15.0883005,0.0001582,53.2168,156.8482,87.8308,272.2865,0.00011819,1.593e-05,0.0,0 STARLINK-4564,1 53560U 22101AK  23259.72491359  .00001593  00000-0  11819-3 0  9997,2 53560  53.2168 156.8482 0001582  87.8308 272.2865 15.08830050 59826,6917.911,95.438,540.87,538.681,0.0
53560.0,STARLINK-4564,PAYLOAD,2023-09-17 02:56:11,15.08841675,0.000142,53.2166,155.0634,82.963,277.1523,0.00016486,2.337e-05,0.0,0 STARLINK-4564,1 53560U 22101AK  23260.12235196  .00002337  00000-0  16486-3 0  9990,2 53560  53.2166 155.0634 0001420  82.9630 277.1523 15.08841675 59885,6917.875,95.437,540.723,538.758,0.0
53560.0,STARLINK-4564,PAYLOAD,2023-09-17 23:36:11,15.08855079,0.0001449,53.2166,151.1971,84.7145,275.4013,0.00016348,2.316e-05,0.0,0 STARLINK-4564,1 53560U 22101AK  23260.98346430  .00002316  00000-0  16348-3 0  9992,2 53560  53.2166 151.1971 0001449  84.7145 275.4013 15.08855079 60013,6917.834,95.437,540.702,538.697,0.0
53560.0,STARLINK-4564,PAYLOAD,2023-09-18 21:51:35,15.08843363,0.0001324,53.2157,147.0364,78.2095,281.9045,0.00017158,2.444e-05,0.0,0 STARLINK-4564,1 53560U 22101AK  23261.91083026  .00002444  00000-0  17158-3 0  9997,2 53560  53.2157 147.0364 0001324  78.2095 281.9045 15.08843363 60152,6917.87,95.437,540.651,538.819,0.0
53560.0,STARLINK-4564,PAYLOAD,2023-09-19 01:02:21,15.08854092,0.0001315,53.2159,146.4396,89.032,271.0823,0.00035858,5.426e-05,0.0,0 STARLINK-4564,1 53560U 22101AK  23262.04330643  .00005426  00000-0  35858-3 0  9992,2 53560  53.2159 146.4396 0001315  89.0320 271.0823 15.08854092 60170,6917.837,95.437,540.612,538.793,0.0
53560.0,STARLINK-4564,PAYLOAD,2023-09-19 15:20:49,15.08847946,0.0001322,53.2147,143.7651,94.1918,265.9225,0.0001465,2.045e-05,0.0,0 STARLINK-4564,1 53560U 22101AK  23262.63946496  .00002045  00000-0  14650-3 0  9997,2 53560  53.2147 143.7651 0001322  94.1918 265.9225 15.08847946 60267,6917.856,95.437,540.636,538.807,0.0
53560.0,STARLINK-4564,PAYLOAD,2023-09-20 08:50:04,15.08831229,0.0001678,53.2152,140.4942,84.5665,275.5519,-0.00017817,-3.122e-05,0.0,0 STARLINK-4564,1 53560U 22101AK  23263.36811025 -.00003122  00000-0 -17817-3 0  9994,2 53560  53.2152 140.4942 0001678  84.5665 275.5519 15.08831229 60378,6917.907,95.438,540.933,538.611,0.0
